59P/Kearns-Kwee,e,9.3577,312.7262,127.7066,4.477728,0.1040202,0.47699157,285.3486,03/29.0/2026,2000,g  7.0,6.0
# From MPC191598
60P/Tsuchinshan,e,3.5798,267.3956,216.9199,3.529444,0.1486431,0.53368316,37.3671,03/29.0/2026,2000,g 11.5,6.0
# From MPC191598
61P/Shajn-Schaldach,e,5.9954,162.9532,221.7185,3.691496,0.1389634,0.42269062,174.1374,03/29.0/2026,2000,g  6.0,10.0
# From MPC191598
62P/Tsuchinshan,e,4.7358,68.6589,47.3557,3.371678,0.1591970,0.62473066,131.2845,03/29.0/2026,2000,g  8.0,10.0
# From MPEC 2026-FC3
63P/Wild,e,19.6180,357.7419,168.7363,5.656965,0.0732536,0.65088538,352.7378,03/29.0/2026,2000,g 10.5,6.0
# From MPC191598
64P/Swift-Gehrels,e,8.9550,299.7606,97.3400,4.452377,0.1049098,0.68817456,283.0671,03/29.0/2026,2000,g  9.5,12.0
# From MPC191598
65P/Gunn,e,9.1749,61.9683,213.6318,3.891289,0.1283996,0.24806667,36.6899,03/29.0/2026,2000,g  5.0,6.0
# From MPC191598
66P/duToit,e,18.6470,21.8643,257.3274,6.070574,0.0658961,0.78492871,189.7727,03/29.0/2026,2000,g 12.0,3.6
# From MPC191598
67P/Churyumov-Gerasimenko,e,3.8668,36.2969,22.2338,3.458805,0.1532198,0.64962948,246.2447,03/29.0/2026,2000,g 11.0,4.0
# From MPC191598
68P/Klemola,e,11.0965,175.0979,153.1830,4.964494,0.0891029,0.63560094,208.2054,03/29.0/2026,2000,g 10.0,4.0
# From MPC191599
69P/Taylor,e,22.0612,104.8062,343.5476,3.878850,0.1290178,0.41465610,330.5242,03/29.0/2026,2000,g  9.5,12.0
# From MPC191599
70P/Kojima,e,6.6037,119.2363,1.8194,3.674752,0.1399142,0.45496545,224.5698,03/29.0/2026,2000,g 11.0,6.0
# From MPC191599
71P/Clark,e,9.1795,58.8296,210.8818,3.187405,0.1732001,0.48135535,202.2472,03/29.0/2026,2000,g  9.8,6.0
# From MPC191599
73P/Schwassmann-Wachmann,e,6.2681,52.9555,214.0738,3.056674,0.1844295,0.70318542,243.2892,03/29.0/2026,2000,g 11.5,6.0
# From MPC106348
73P-BT/Schwassmann-Wachmann,e,6.2293,53.0129,213.9520,3.058066,0.1843036,0.70336719,243.0128,03/29.0/2026,2000,g 11.5,6.0
# From MPEC 2026-E44
74P/Smirnova-Chernykh,e,5.8768,49.8831,57.7030,5.172570,0.0837808,0.06482853,2.7451,03/29.0/2026,2000,g  5.0,6.0
# From MPEC 2026-E43
76P/West-Kohoutek-Ikemura,e,30.4980,84.1091,0.0238,3.467401,0.1526504,0.53948518,357.6121,03/29.0/2026,2000,g  8.0,12.0
# From MPC191599
77P/Longmore,e,24.3329,14.7477,196.5852,3.619214,0.1431472,0.35214030,156.1691,03/29.0/2026,2000,g  7.0,8.0
# From MPEC 2026-E43
78P/Gehrels,e,6.2575,210.4946,192.7924,3.732113,0.1367011,0.46290404,347.9576,03/29.0/2026,2000,g  5.5,8.0
# From MPC191599
79P/duToit-Hartley,e,3.1489,280.4794,281.7688,2.941890,0.1953280,0.61964003,177.8491,03/29.0/2026,2000,g 16.0,4.0
# From MPC191600
81P/Wild,e,3.2389,136.1075,41.5459,3.450813,0.1537524,0.53798342,184.3044,03/29.0/2026,2000,g  7.0,6.0
# From MPC191600
82P/Gehrels,e,1.1292,239.2894,226.3213,4.134417,0.1172418,0.12342406,332.8845,03/29.0/2026,2000,g  5.0,8.0
# From MPC191600
84P/Giclas,e,7.5529,108.0798,281.7420,3.549935,0.1473579,0.51554877,312.7420,03/29.0/2026,2000,g  9.5,8.0
# From MPC191600
86P/Wild,e,15.4553,72.0688,180.9388,3.655799,0.1410038,0.35955041,214.7061,03/29.0/2026,2000,g 11.0,6.0
# From MPC191600
87P/Bus,e,3.8623,175.5263,63.6562,4.467052,0.1043933,0.19556325,235.7797,03/29.0/2026,2000,g  7.2,10.0
# From MPEC 2026-FC3
88P/Howell,e,4.3818,56.6689,235.8643,3.109064,0.1797875,0.56327768,1.8405,03/29.0/2026,2000,g 11.0,6.0
# From MPC191600
89P/Russell,e,12.0661,41.3374,250.4829,3.751960,0.1356178,0.40699862,99.3566,03/29.0/2026,2000,g 11.5,6.0
# From MPC191600
90P/Gehrels,e,9.6326,13.1433,29.2383,6.055945,0.0661350,0.51012237,211.6795,03/29.0/2026,2000,g  8.5,6.0
# From MPC191600
91P/Russell,e,15.9254,241.8644,356.8252,4.164896,0.1159572,0.25092211,250.8067,03/29.0/2026,2000,g  7.5,6.0
# From MPC191601
92P/Sanguin,e,19.4768,181.3321,163.7774,5.346221,0.0797322,0.65990727,322.2486,03/29.0/2026,2000,g 12.0,6.0
# From MPEC 2026-E44
93P/Lovas,e,12.2106,339.5497,75.0446,4.372122,0.1078116,0.61382814,356.2319,03/29.0/2026,2000,g  9.5,6.0
# From MPC191601
94P/Russell,e,6.1871,70.8349,92.3896,3.509521,0.1499106,0.36626809,156.2745,03/29.0/2026,2000,g  9.0,6.0
# From MPC191601
96P/Machholz,e,57.5756,93.9589,14.7427,3.030962,0.1867813,0.96173361,215.2397,03/29.0/2026,2000,g 13.0,4.8
# From MPC106348
96P-B/Machholz,e,57.5109,14.4846,94.0731,3.029966,0.1868734,0.96174947,215.4106,03/29.0/2026,2000,g 13.0,4.8
# From MPC191601
97P/Metcalf-Brewington,e,17.9307,184.0613,230.2440,4.771656,0.0945584,0.45954334,142.0638,03/29.0/2026,2000,g  5.5,6.0
# From MPC191601
98P/Takamizawa,e,10.9634,114.4882,159.3812,3.702361,0.1383522,0.59458815,255.5295,03/29.0/2026,2000,g  9.0,8.0
# From MPC191601
99P/Kowal,e,4.3396,28.0440,174.5052,6.092709,0.0655373,0.22905264,95.0241,03/29.0/2026,2000,g  4.5,6.0
# From MPC191601
100P/Hartley,e,25.5688,37.6861,181.8871,3.430191,0.1551410,0.41143446,205.9190,03/29.0/2026,2000,g  9.0,8.0
# From MPC191601
101P/Chernykh,e,5.0485,116.1116,278.0131,5.819647,0.0702036,0.59505819,159.2144,03/29.0/2026,2000,g 10.0,4.8
# From MPC191601
102P/Shoemaker,e,25.8442,339.3436,20.6962,3.821231,0.1319469,0.45570761,249.8507,03/29.0/2026,2000,g  6.5,8.0
# From MPC191602
103P/Hartley,e,13.6026,219.7629,181.3353,3.476323,0.1520631,0.69323094,136.6682,03/29.0/2026,2000,g  8.5,8.0
# From MPC191602
104P/Kowal,e,5.6997,207.1573,227.3394,3.208438,0.1714998,0.66580514,263.4514,03/29.0/2026,2000,g 16.0,4.0
# From MPC191602
105P/SingerBrewster,e,9.1686,192.3854,46.3051,3.472410,0.1523202,0.40919591,65.5433,03/29.0/2026,2000,g 11.5,6.0
# From MPC191602
106P/Schuster,e,19.5256,48.8646,353.8008,3.768951,0.1347018,0.59321549,226.7172,03/29.0/2026,2000,g 14.0,4.8
# From MPC191602
108P/Ciffreo,e,11.4298,50.2723,354.5649,3.744531,0.1360216,0.55536057,225.9018,03/29.0/2026,2000,g  8.0,12.0
# From MPC191602
110P/Hartley,e,11.7117,287.4817,167.6011,3.603195,0.1441028,0.31924283,233.5447,03/29.0/2026,2000,g  1.0,12.0
# From MPC191602
111P/Helin-Roman-Crockett,e,4.2261,89.7325,1.6208,4.153117,0.1164509,0.10711281,202.8627,03/29.0/2026,2000,g  5.0,8.0
# From MPC191602
112P/Urata-Niijima,e,24.2035,31.7960,21.5812,3.521411,0.1491520,0.59073967,333.6219,03/29.0/2026,2000,g 14.0,6.0
# From MPC191602
113P/Spitaler,e,5.2880,306.6096,115.7703,3.696940,0.1386566,0.41936379,193.6065,03/29.0/2026,2000,g 13.5,4.0
# From MPC191603
114P/Wiseman-Skiff,e,18.3034,271.0226,172.8448,3.538544,0.1480700,0.55610230,334.8292,03/29.0/2026,2000,g 11.5,6.0
# From MPC191603
115P/Maury,e,11.7046,175.8705,120.9855,4.268926,0.1117445,0.51914239,231.4869,03/29.0/2026,2000,g 10.5,6.0
# From MPC191603
116P/Wild,e,3.6053,20.9585,173.1498,3.484918,0.1515009,0.37111861,204.6519,03/29.0/2026,2000,g  2.5,10.0
# From MPEC 2026-E43
117P/Helin-Roman-Alu,e,8.6483,58.7386,225.0254,4.128596,0.1174899,0.24939245,159.7155,03/29.0/2026,2000,g  2.5,8.0
# From MPC191603
118P/Shoemaker-Levy,e,10.0935,142.0422,314.9868,3.349131,0.1608073,0.45375936,196.1816,03/29.0/2026,2000,g 12.0,4.0
# From MPC191603
119P/Parker-Hartley,e,7.3928,104.5410,322.3075,3.810686,0.1324950,0.38781478,175.5147,03/29.0/2026,2000,g  3.5,8.0
# From MPC191603
120P/Mueller,e,8.4783,358.6378,36.8496,3.971012,0.1245524,0.37375736,222.5757,03/29.0/2026,2000,g 12.0,4.0
# From MPC191603
121P/Shoemaker-Holt,e,20.1618,94.1057,12.1096,4.591488,0.1001783,0.18663492,100.3245,03/29.0/2026,2000,g  6.5,8.0
# From MPEC 2026-FC3
123P/West-Hartley,e,15.2833,45.8724,103.8928,3.887674,0.1285788,0.44478445,337.2447,03/29.0/2026,2000,g  4.0,10.0
# From MPEC 2026-FC3
124P/Mrkos,e,31.4048,359.9478,185.1172,3.377574,0.1587803,0.48632593,346.2508,03/29.0/2026,2000,g 13.5,2.8
# From MPC191604
125P/Spacewatch,e,9.9862,153.1531,87.0752,3.127017,0.1782414,0.51203492,134.0132,03/29.0/2026,2000,g 13.0,6.0
# From MPC191604
126P/IRAS,e,45.8740,357.8544,356.5392,5.624245,0.0738938,0.69578969,73.7713,03/29.0/2026,2000,g  6.0,8.0
# From MPC191604
127P/Holt-Olmstead,e,14.2911,13.6141,6.3365,3.455324,0.1534514,0.35838756,203.7174,03/29.0/2026,2000,g 11.0,6.0
# From MPEC 2026-E43
128P/Shoemaker-Holt,e,4.3717,214.3066,210.5590,4.480773,0.1039141,0.32225356,348.5676,03/29.0/2026,2000,g  8.5,4.0
# From MPC191604
129P/Shoemaker-Levy,e,3.4411,184.8327,308.0856,4.294997,0.1107286,0.08598558,133.9702,03/29.0/2026,2000,g 11.0,4.0
# From MPC191604
130P/McNaught-Hughes,e,5.9973,69.8661,247.3288,3.407446,0.1566970,0.45983630,111.5088,03/29.0/2026,2000,g 10.0,6.0
# From MPC191604
131P/Mueller,e,7.3623,214.1324,179.2765,3.673742,0.1399720,0.34459128,5.7766,03/29.0/2026,2000,g 11.0,4.0
# From MPC191604
132P/Helin-Roman-Alu,e,5.3757,173.9612,216.5271,3.893433,0.1282936,0.56361790,204.9589,03/29.0/2026,2000,g 11.0,6.0
# From MPC191604
134P/Kowal-Vavrova,e,4.3315,202.0182,18.5671,6.277732,0.0626614,0.58573328,273.5075,03/29.0/2026,2000,g 11.5,4.0
# From MPC191605
135P/Shoemaker-Levy,e,6.0617,213.0155,22.3078,3.802294,0.1329338,0.29319355,193.3153,03/29.0/2026,2000,g  7.0,8.0
# From MPEC 2026-E44
136P/Mueller,e,9.4289,137.3984,225.5280,4.190616,0.1148914,0.29356245,51.5520,03/29.0/2026,2000,g 11.0,4.0
# From MPC191605
137P/Shoemaker-Levy,e,4.8582,232.9303,141.1923,4.524794,0.1024014,0.57262240,272.5827,03/29.0/2026,2000,g 11.0,4.0
# From MPC191605
138P/Shoemaker-Levy,e,10.0984,309.2192,95.7591,3.615845,0.1433472,0.53143142,0.6695,03/29.0/2026,2000,g 15.0,6.0
# From MPC191605
139P/Vaisala-Oterma,e,2.3382,242.1261,166.0969,4.511895,0.1028408,0.24810374,310.5085,03/29.0/2026,2000,g  9.5,4.0
# From MPC191605
140P/Bowell-Skiff,e,3.6741,343.3489,172.1497,6.415464,0.0606543,0.69485739,237.6956,03/29.0/2026,2000,g 11.5,6.0
# From MPC191605
141P/Machholz,e,13.9603,241.7717,153.6502,3.056379,0.1844562,0.73581063,355.3900,03/29.0/2026,2000,g 12.0,12.0
# From MPEC 2015-KD9
141P-A/Machholz,e,13.9430,153.4939,241.9387,3.056833,0.1844151,0.73584746,355.3240,03/29.0/2026,2000,g 12.0,12.0
# From MPC 37026
141P-D/Machholz,e,13.8345,153.2187,242.1848,3.065050,0.1836740,0.73674027,350.7041,03/29.0/2026,2000,g 12.0,12.0
# From MPC186636
141P-H/Machholz,e,14.0166,241.8473,153.6249,3.045598,0.1854365,0.73457638,359.2987,03/29.0/2026,2000,g 18.5,4.0
# From MPEC 2022-SU8
